NORAD_CAT_ID,OBJECT_NAME,OBJECT_TYPE,EPOCH,MEAN_MOTION,ECCENTRICITY,INCLINATION,RA_OF_ASC_NODE,ARG_OF_PERICENTER,MEAN_ANOMALY,BSTAR,MEAN_MOTION_DOT,MEAN_MOTION_DDOT,TLE_LINE0,TLE_LINE1,TLE_LINE2,SEMIMAJOR_AXIS,PERIOD,APOGEE,PERIGEE,DECAYED
53801.0,STARLINK-4715,PAYLOAD,2023-08-27 17:53:05,15.08839187,0.00013,53.2173,96.1826,96.2609,263.8531,-3.4209e-05,-8.32e-06,0.0,0 STARLINK-4715,1 53801U 22111AE  23239.74520695 -.00000832  00000-0 -34209-4 0  9998,2 53801  53.2173  96.1826 0001300  96.2609 263.8531 15.08839187 53374,6917.883,95.438,540.647,538.849,0.0
53801.0,STARLINK-4715,PAYLOAD,2023-08-27 21:03:51,15.08842223,0.0001282,53.2177,95.5876,101.2776,258.836,-3.7573e-05,-8.86e-06,0.0,0 STARLINK-4715,1 53801U 22111AE  23239.87768484 -.00000886  00000-0 -37573-4 0  9998,2 53801  53.2177  95.5876 0001282 101.2776 258.8360 15.08842223 54209,6917.874,95.437,540.625,538.852,0.0
53801.0,STARLINK-4715,PAYLOAD,2023-08-28 00:14:38,15.08844373,0.0001368,53.2179,94.9929,105.8839,254.2304,-6.3343e-06,-3.89e-06,0.0,0 STARLINK-4715,1 53801U 22111AE  23240.01016241 -.00000389  00000-0 -63343-5 0  9996,2 53801  53.2179  94.9929 0001368 105.8839 254.2304 15.08844373 53416,6917.867,95.437,540.678,538.786,0.0
53801.0,STARLINK-4715,PAYLOAD,2023-08-28 20:54:39,15.08836588,0.0001345,53.2178,91.127,89.3829,270.7317,4.2785e-05,3.93e-06,0.0,0 STARLINK-4715,1 53801U 22111AE  23240.87128826  .00000393  00000-0  42785-4 0  9992,2 53801  53.2178  91.1270 0001345  89.3829 270.7317 15.08836588 54353,6917.891,95.438,540.686,538.825,0.0
53801.0,STARLINK-4715,PAYLOAD,2023-08-29 00:05:25,15.08838396,0.0001347,53.2178,90.5324,89.3021,270.8126,5.7035e-05,6.2e-06,0.0,0 STARLINK-4715,1 53801U 22111AE  23241.00376696  .00000620  00000-0  57035-4 0  9995,2 53801  53.2178  90.5324 0001347  89.3021 270.8126 15.08838396 53562,6917.885,95.438,540.682,538.818,0.0
53801.0,STARLINK-4715,PAYLOAD,2023-08-29 20:45:26,15.08841442,0.0001312,53.2178,86.6668,87.607,272.5072,8.3198e-05,1.036e-05,0.0,0 STARLINK-4715,1 53801U 22111AE  23241.86488662  .00001036  00000-0  83198-4 0  9997,2 53801  53.2178  86.6668 0001312  87.6070 272.5072 15.08841442 54506,6917.876,95.437,540.649,538.833,0.0
53801.0,STARLINK-4715,PAYLOAD,2023-08-30 06:17:45,15.08841542,0.0001315,53.2177,84.8833,90.3684,269.7459,5.0277e-05,5.12e-06,0.0,0 STARLINK-4715,1 53801U 22111AE  23242.26232658  .00000512  00000-0  50277-4 0  9994,2 53801  53.2177  84.8833 0001315  90.3684 269.7459 15.08841542 53758,6917.876,95.437,540.65,538.831,0.0
53801.0,STARLINK-4715,PAYLOAD,2023-08-30 20:36:13,15.08836143,0.0001996,53.2179,82.2078,97.0197,263.1022,-3.7418e-06,-3.48e-06,0.0,0 STARLINK-4715,1 53801U 22111AE  23242.85849336 -.00000348  00000-0 -37418-5 0  9998,2 53801  53.2179  82.2078 0001996  97.0197 263.1022 15.08836143 54656,6917.892,95.438,541.138,538.376,0.0
53801.0,STARLINK-4715,PAYLOAD,2023-08-30 23:47:01,15.08813627,0.0001715,53.218,81.6132,87.6453,272.4736,-0.00018643,-3.252e-05,0.0,0 STARLINK-4715,1 53801U 22111AE  23242.99099217 -.00003252  00000-0 -18643-3 0  9992,2 53801  53.2180  81.6132 0001715  87.6453 272.4736 15.08813627 53860,6917.961,95.439,541.012,538.64,0.0
53801.0,STARLINK-4715,PAYLOAD,2023-08-31 06:08:32,15.08832109,0.0001351,53.2178,80.4233,95.1853,264.9294,-3.9576e-05,-9.18e-06,0.0,0 STARLINK-4715,1 53801U 22111AE  23243.25593718 -.00000918  00000-0 -39576-4 0  9992,2 53801  53.2178  80.4233 0001351  95.1853 264.9294 15.08832109 53906,6917.905,95.438,540.704,538.835,0.0
53801.0,STARLINK-4715,PAYLOAD,2023-08-31 23:37:48,15.08821297,0.0001423,53.2176,77.158,108.9802,251.1345,-0.00038659,-6.432e-05,0.0,0 STARLINK-4715,1 53801U 22111AE  23243.98459189 -.00006432  00000-0 -38659-3 0  9992,2 53801  53.2176  77.1580 0001423 108.9802 251.1345 15.08821297 54013,6917.938,95.439,540.787,538.818,0.0
53801.0,STARLINK-4715,PAYLOAD,2023-09-02 05:50:07,15.08821869,0.0001968,53.2037,71.5065,107.1601,252.9607,0.0003254,4.892e-05,0.0,0 STARLINK-4715,1 53801U 22111AE  23245.24314114  .00004892  00000-0  32540-3 0  9990,2 53801  53.2037  71.5065 0001968 107.1601 252.9607 15.08821869 54203,6917.936,95.439,541.162,538.439,0.0
53801.0,STARLINK-4715,PAYLOAD,2023-09-02 12:11:39,15.08836027,0.0001445,53.2153,70.3128,81.5034,278.6121,0.00010326,1.356e-05,0.0,0 STARLINK-4715,1 53801U 22111AE  23245.50809636  .00001356  00000-0  10326-3 0  9997,2 53801  53.2153  70.3128 0001445  81.5034 278.6121 15.08836027 55056,6917.893,95.438,540.757,538.758,0.0
53801.0,STARLINK-4715,PAYLOAD,2023-09-02 18:33:12,15.08836356,0.0001318,53.2157,69.123,82.3551,277.7591,0.00010176,1.332e-05,0.0,0 STARLINK-4715,1 53801U 22111AE  23245.77305659  .00001332  00000-0  10176-3 0  9999,2 53801  53.2157  69.1230 0001318  82.3551 277.7591 15.08836356 54282,6917.892,95.438,540.668,538.845,0.0
53801.0,STARLINK-4715,PAYLOAD,2023-09-02 20:08:34,15.08846254,0.0001364,53.2175,68.8263,81.0744,279.0403,5.9872e-05,6.65e-06,0.0,0 STARLINK-4715,1 53801U 22111AE  23245.83929222  .00000665  00000-0  59872-4 0  9999,2 53801  53.2175  68.8263 0001364  81.0744 279.0403 15.08846254 54291,6917.861,95.437,540.67,538.783,0.0
53801.0,STARLINK-4715,PAYLOAD,2023-09-03 12:02:26,15.08844494,0.0001399,53.2177,65.8537,78.4934,281.6216,4.777e-05,4.72e-06,0.0,0 STARLINK-4715,1 53801U 22111AE  23246.50169198  .00000472  00000-0  47770-4 0  9992,2 53801  53.2177  65.8537 0001399  78.4934 281.6216 15.08844494 55200,6917.867,95.437,540.699,538.764,0.0
53801.0,STARLINK-4715,PAYLOAD,2023-09-03 21:34:44,15.0884431,0.0001417,53.2176,64.0692,79.6554,280.4598,0.00012221,1.658e-05,0.0,0 STARLINK-4715,1 53801U 22111AE  23246.89912905  .00001658  00000-0  12221-3 0  9995,2 53801  53.2176  64.0692 0001417  79.6554 280.4598 15.08844310 54457,6917.867,95.437,540.712,538.752,0.0
53801.0,STARLINK-4715,PAYLOAD,2023-09-04 05:31:40,15.08839607,0.0001405,53.2161,62.5817,80.6225,279.4926,6.8008e-05,7.95e-06,0.0,0 STARLINK-4715,1 53801U 22111AE  23247.23033351  .00000795  00000-0  68008-4 0  9999,2 53801  53.2161  62.5817 0001405  80.6225 279.4926 15.08839607 54509,6917.882,95.438,540.719,538.775,0.0
53801.0,STARLINK-4715,PAYLOAD,2023-09-04 11:53:13,15.08834052,0.0001439,53.2166,61.3933,78.0545,282.0608,3.768e-05,3.12e-06,0.0,0 STARLINK-4715,1 53801U 22111AE  23247.49529812  .00000312  00000-0  37680-4 0  9996,2 53801  53.2166  61.3933 0001439  78.0545 282.0608 15.08834052 55353,6917.899,95.438,540.759,538.768,0.0
53801.0,STARLINK-4715,PAYLOAD,2023-09-04 18:14:46,15.08834666,0.000131,53.2173,60.2035,86.0805,274.0337,3.4785e-05,2.66e-06,0.0,0 STARLINK-4715,1 53801U 22111AE  23247.76025834  .00000266  00000-0  34785-4 0  9992,2 53801  53.2173  60.2035 0001310  86.0805 274.0337 15.08834666 54583,6917.897,95.438,540.668,538.855,0.0
53801.0,STARLINK-4715,PAYLOAD,2023-09-05 18:05:33,15.08842206,0.0001358,53.2173,55.7433,85.1025,275.0122,3.822e-05,3.2e-06,0.0,0 STARLINK-4715,1 53801U 22111AE  23248.75385441  .00000320  00000-0  38220-4 0  9994,2 53801  53.2173  55.7433 0001358  85.1025 275.0122 15.08842206 54739,6917.874,95.437,540.678,538.799,0.0
53801.0,STARLINK-4715,PAYLOAD,2023-09-06 11:34:47,15.08835306,0.0001172,53.2175,52.4721,87.3235,272.7891,0.00011052,1.471e-05,0.0,0 STARLINK-4715,1 53801U 22111AE  23249.48249802  .00001471  00000-0  11052-3 0  9996,2 53801  53.2175  52.4721 0001172  87.3235 272.7891 15.08835306 54848,6917.895,95.438,540.571,538.949,0.0
53801.0,STARLINK-4715,PAYLOAD,2023-09-07 11:25:34,15.08870772,0.0001314,53.2193,48.0123,92.2733,267.8409,-0.00036519,-6.1e-05,0.0,0 STARLINK-4715,1 53801U 22111AE  23250.47609571 -.00006100  00000-0 -36519-3 0  9991,2 53801  53.2193  48.0123 0001314  92.2733 267.8409 15.08870772 55804,6917.786,95.436,540.56,538.742,0.0
53801.0,STARLINK-4715,PAYLOAD,2023-09-07 19:22:30,15.08844665,0.0001451,53.219,46.5232,85.0537,275.0621,9.9148e-06,-1.3e-06,0.0,0 STARLINK-4715,1 53801U 22111AE  23250.80729667 -.00000130  00000-0  99148-5 0  9992,2 53801  53.2190  46.5232 0001451  85.0537 275.0621 15.08844665 55853,6917.866,95.437,540.735,538.727,0.0
53801.0,STARLINK-4715,PAYLOAD,2023-09-08 03:19:26,15.08842957,0.000137,53.2194,45.0384,91.0109,269.1041,1.7675e-05,-7e-08,0.0,0 STARLINK-4715,1 53801U 22111AE  23251.13849715 -.00000007  00000-0  17675-4 0  9993,2 53801  53.2194  45.0384 0001370  91.0109 269.1041 15.08842957 55909,6917.871,95.437,540.684,538.789,0.0
53801.0,STARLINK-4715,PAYLOAD,2023-09-08 19:13:17,15.08839107,0.0001359,53.2192,42.0633,88.579,271.5358,3.7828e-05,3.14e-06,0.0,0 STARLINK-4715,1 53801U 22111AE  23251.80090056  .00000314  00000-0  37828-4 0  9995,2 53801  53.2192  42.0633 0001359  88.5790 271.5358 15.08839107 55197,6917.883,95.438,540.688,538.808,0.0
53801.0,STARLINK-4715,PAYLOAD,2023-09-08 20:48:40,15.08839739,0.0001421,53.2195,41.7648,89.9005,270.215,4.9502e-05,5e-06,0.0,0 STARLINK-4715,1 53801U 22111AE  23251.86714009  .00000500  00000-0  49502-4 0  9991,2 53801  53.2195  41.7648 0001421  89.9005 270.2150 15.08839739 56015,6917.881,95.438,540.729,538.763,0.0
53801.0,STARLINK-4715,PAYLOAD,2023-09-09 11:07:09,15.0883196,0.0001212,53.2188,39.0888,83.0631,277.0499,4.9096e-05,4.93e-06,0.0,0 STARLINK-4715,1 53801U 22111AE  23252.46330656  .00000493  00000-0  49096-4 0  9999,2 53801  53.2188  39.0888 0001212  83.0631 277.0499 15.08831960 55299,6917.905,95.438,540.608,538.932,0.0
53801.0,STARLINK-4715,PAYLOAD,2023-09-09 17:28:41,15.08843096,0.0001296,53.2187,37.8995,85.6764,274.4376,7.0191e-05,8.29e-06,0.0,0 STARLINK-4715,1 53801U 22111AE  23252.72826002  .00000829  00000-0  70191-4 0  9996,2 53801  53.2187  37.8995 0001296  85.6764 274.4376 15.08843096 55333,6917.871,95.437,540.632,538.839,0.0
53801.0,STARLINK-4715,PAYLOAD,2023-09-10 14:08:42,15.08843044,0.0001308,53.2196,34.0359,81.8759,278.2382,0.00014329,1.993e-05,0.0,0 STARLINK-4715,1 53801U 22111AE  23253.58937917  .00001993  00000-0  14329-3 0  9992,2 53801  53.2196  34.0359 0001308  81.8759 278.2382 15.08843044 56278,6917.871,95.437,540.641,538.831,0.0
